[{"OBJECT_NAME":"STARLINK-35941","OBJECT_ID":"2025-268AC","EPOCH":"2026-03-09T04:01:15.320352","MEAN_MOTION":15.27614759,"ECCENTRICITY":0.0001704,"INCLINATION":43.0043,"RA_OF_ASC_NODE":349.6827,"ARG_OF_PERICENTER":259.9625,"MEAN_ANOMALY":100.1035,"EPHEMERIS_TYPE":0,"CLASSIFICATION_TYPE":"U","NORAD_CAT_ID":66583,"ELEMENT_SET_NO":999,"REV_AT_EPOCH":1788,"BSTAR":0.0012194103,"MEAN_MOTION_DOT":0.00033482,"MEAN_MOTION_DDOT":0},{"OBJECT_NAME":"CZ-4C DEB","OBJECT_ID":"2007-055C","EPOCH":"2026-03-09T22:46:15.652128","MEAN_MOTION":15.30523578,"ECCENTRICITY":0.00469709,"INCLINATION":97.8668,"RA_OF_ASC_NODE":247.2248,"ARG_OF_PERICENTER":277.363,"MEAN_ANOMALY":82.2273,"EPHEMERIS_TYPE":0,"CLASSIFICATION_TYPE":"U","NORAD_CAT_ID":35248,"ELEMENT_SET_NO":999,"REV_AT_EPOCH":97353,"BSTAR":0.0018809895,"MEAN_MOTION_DOT":0.000577,"MEAN_MOTION_DDOT":0}]
